{
    "week": 289,
    "satellites": [
        {
            "Name": "COSMOS 2545 (760)",
            "Line1": "1 45358U 20018A   24296.22557960 -.00000062  00000+0  00000+0 0  9992",
            "Line2": "2 45358  64.6884 333.5333 0012142 244.1829 115.7494  2.13102516 35815",
            "SatelliteNumber": "45358",
            "Classification": "U",
            "LaunchYear": "20",
            "LaunchNumber": "018",
            "PieceOfLaunch": "A",
            "EpochYear": "24",
            "EpochDay": 296.2255796,
            "FirstDerivativeMeanMotion": -6.2e-07,
            "SecondDerivativeMeanMotion": "00000+0",
            "BSTAR": "00000+0",
            "SetNumber": "999",
            "Inclination": 64.6884,
            "RAAN": 333.5333,
            "Eccentricity": 0.0012142,
            "ArgumentOfPerigee": 244.1829,
            "MeanAnomaly": 115.7494,
            "MeanMotion": 2.13102516,
            "RevolutionNumber": "3581"
        },
        {
            "Name": "COSMOS 2547 (705K)",
            "Line1": "1 46805U 20075A   24296.88141754 -.00000009  00000+0  00000+0 0  9996",
            "Line2": "2 46805  64.5975 212.5963 0007246 238.6665 121.2963  2.13102735 31073",
            "SatelliteNumber": "46805",
            "Classification": "U",
            "LaunchYear": "20",
            "LaunchNumber": "075",
            "PieceOfLaunch": "A",
            "EpochYear": "24",
            "EpochDay": 296.88141754,
            "FirstDerivativeMeanMotion": -9e-08,
            "SecondDerivativeMeanMotion": "00000+0",
            "BSTAR": "00000+0",
            "SetNumber": "999",
            "Inclination": 64.5975,
            "RAAN": 212.5963,
            "Eccentricity": 0.0007246,
            "ArgumentOfPerigee": 238.6665,
            "MeanAnomaly": 121.2963,
            "MeanMotion": 2.13102735,
            "RevolutionNumber": "3107"
        },
        {
            "Name": "COSMOS 2557 (706K)",
            "Line1": "1 52984U 22075A   24296.57800834 -.00000065  00000+0  00000+0 0  9992",
            "Line2": "2 52984  64.6183 335.6392 0013667 274.4108  85.4916  2.13102133 17870",
            "SatelliteNumber": "52984",
            "Classification": "U",
            "LaunchYear": "22",
            "LaunchNumber": "075",
            "PieceOfLaunch": "A",
            "EpochYear": "24",
            "EpochDay": 296.57800834,
            "FirstDerivativeMeanMotion": -6.5e-07,
            "SecondDerivativeMeanMotion": "00000+0",
            "BSTAR": "00000+0",
            "SetNumber": "999",
            "Inclination": 64.6183,
            "RAAN": 335.6392,
            "Eccentricity": 0.0013667,
            "ArgumentOfPerigee": 274.4108,
            "MeanAnomaly": 85.4916,
            "MeanMotion": 2.13102133,
            "RevolutionNumber": "1787"
        },
        {
            "Name": "COSMOS 2559 (707K)",
            "Line1": "1 54031U 22130A   24296.52131710 -.00000066  00000+0  00000+0 0  9995",
            "Line2": "2 54031  64.5903 335.7544 0008393 227.9530 132.0340  2.13101396 15841",
            "SatelliteNumber": "54031",
            "Classification": "U",
            "LaunchYear": "22",
            "LaunchNumber": "130",
            "PieceOfLaunch": "A",
            "EpochYear": "24",
            "EpochDay": 296.5213171,
            "FirstDerivativeMeanMotion": -6.6e-07,
            "SecondDerivativeMeanMotion": "00000+0",
            "BSTAR": "00000+0",
            "SetNumber": "999",
            "Inclination": 64.5903,
            "RAAN": 335.7544,
            "Eccentricity": 0.0008393,
            "ArgumentOfPerigee": 227.953,
            "MeanAnomaly": 132.034,
            "MeanMotion": 2.13101396,
            "RevolutionNumber": "1584"
        },
        {
            "Name": "COSMOS 2564 (761)",
            "Line1": "1 54377U 22161A   24296.24236125  .00000000  00000+0  00000+0 0  9994",
            "Line2": "2 54377  64.7389 212.7451 0009435 218.0955 141.8719  2.13102111 14781",
            "SatelliteNumber": "54377",
            "Classification": "U",
            "LaunchYear": "22",
            "LaunchNumber": "161",
            "PieceOfLaunch": "A",
            "EpochYear": "24",
            "EpochDay": 296.24236125,
            "FirstDerivativeMeanMotion": 0.0,
            "SecondDerivativeMeanMotion": "00000+0",
            "BSTAR": "00000+0",
            "SetNumber": "999",
            "Inclination": 64.7389,
            "RAAN": 212.7451,
            "Eccentricity": 0.0009435,
            "ArgumentOfPerigee": 218.0955,
            "MeanAnomaly": 141.8719,
            "MeanMotion": 2.13102111,
            "RevolutionNumber": "1478"
        },
        {
            "Name": "COSMOS 2569 (703K)",
            "Line1": "1 57517U 23114A   24297.19723184  .00000042  00000+0  00000+0 0  9999",
            "Line2": "2 57517  64.9774  92.9749 0008685 291.7842  68.1277  2.13103999  9438",
            "SatelliteNumber": "57517",
            "Classification": "U",
            "LaunchYear": "23",
            "LaunchNumber": "114",
            "PieceOfLaunch": "A",
            "EpochYear": "24",
            "EpochDay": 297.19723184,
            "FirstDerivativeMeanMotion": 4.2e-07,
            "SecondDerivativeMeanMotion": "00000+0",
            "BSTAR": "00000+0",
            "SetNumber": "999",
            "Inclination": 64.9774,
            "RAAN": 92.9749,
            "Eccentricity": 0.0008685,
            "ArgumentOfPerigee": 291.7842,
            "MeanAnomaly": 68.1277,
            "MeanMotion": 2.13103999,
            "RevolutionNumber": "943"
        }
    ]
}